CCSDS_OMM_VERS = 2.0
CREATION_DATE  = 
ORIGINATOR     = 

OBJECT_NAME    = STARLINK-36388
OBJECT_ID      = 2026-040Y
CENTER_NAME    = EARTH
REF_FRAME      = TEME
TIME_SYSTEM    = UTC
MEAN_ELEMENT_THEORY = SGP/SGP4

EPOCH          = 2026-03-17T14:00:01.999872
MEAN_MOTION    = 15.85005169
ECCENTRICITY   = .00017667
INCLINATION    = 97.2763
RA_OF_ASC_NODE = 25.4289
ARG_OF_PERICENTER = 91.8153
MEAN_ANOMALY   = 75.6166

EPHEMERIS_TYPE = 0
CLASSIFICATION_TYPE = U
NORAD_CAT_ID   = 68037
ELEMENT_SET_NO = 999
REV_AT_EPOCH   = 364
BSTAR          = -.811178E-2
MEAN_MOTION_DOT = -.1650669E-1
MEAN_MOTION_DDOT = 0

CCSDS_OMM_VERS = 2.0
CREATION_DATE  = 
ORIGINATOR     = 

OBJECT_NAME    = STARLINK-36895
OBJECT_ID      = 2026-040Z
CENTER_NAME    = EARTH
REF_FRAME      = TEME
TIME_SYSTEM    = UTC
MEAN_ELEMENT_THEORY = SGP/SGP4

EPOCH          = 2026-03-17T14:00:01.999872
MEAN_MOTION    = 15.85076371
ECCENTRICITY   = .00017298
INCLINATION    = 97.2732
RA_OF_ASC_NODE = 25.4204
ARG_OF_PERICENTER = 95.1506
MEAN_ANOMALY   = 58.8910

EPHEMERIS_TYPE = 0
CLASSIFICATION_TYPE = U
NORAD_CAT_ID   = 68038
ELEMENT_SET_NO = 999
REV_AT_EPOCH   = 369
BSTAR          = -.79140701E-2
MEAN_MOTION_DOT = -.1620339E-1
MEAN_MOTION_DDOT = 0

CCSDS_OMM_VERS = 2.0
CREATION_DATE  = 
ORIGINATOR     = 

OBJECT_NAME    = STARLINK-36373
OBJECT_ID      = 2026-040AA
CENTER_NAME    = EARTH
REF_FRAME      = TEME
TIME_SYSTEM    = UTC
MEAN_ELEMENT_THEORY = SGP/SGP4

EPOCH          = 2026-03-17T14:00:01.999872
MEAN_MOTION    = 15.85139995
ECCENTRICITY   = .00018443
INCLINATION    = 97.2729
RA_OF_ASC_NODE = 25.4189
ARG_OF_PERICENTER = 88.2832
MEAN_ANOMALY   = 61.1657

EPHEMERIS_TYPE = 0
CLASSIFICATION_TYPE = U
NORAD_CAT_ID   = 68039
ELEMENT_SET_NO = 999
REV_AT_EPOCH   = 364
BSTAR          = -.78907983E-2
MEAN_MOTION_DOT = -.1620631E-1
MEAN_MOTION_DDOT = 0

CCSDS_OMM_VERS = 2.0
CREATION_DATE  = 
ORIGINATOR     = 

OBJECT_NAME    = STARLINK-36711
OBJECT_ID      = 2026-041A
CENTER_NAME    = EARTH
REF_FRAME      = TEME
TIME_SYSTEM    = UTC
MEAN_ELEMENT_THEORY = SGP/SGP4

EPOCH          = 2026-03-17T14:00:01.999872
MEAN_MOTION    = 15.75276182
ECCENTRICITY   = .00012755
INCLINATION    = 53.1596
RA_OF_ASC_NODE = 22.6987
ARG_OF_PERICENTER = 58.2180
MEAN_ANOMALY   = 357.0555

EPHEMERIS_TYPE = 0
CLASSIFICATION_TYPE = U
NORAD_CAT_ID   = 68040
ELEMENT_SET_NO = 999
REV_AT_EPOCH   = 364
BSTAR          = -.61415002E-3
MEAN_MOTION_DOT = -.93897E-3
MEAN_MOTION_DDOT = 0

CCSDS_OMM_VERS = 2.0
CREATION_DATE  = 
ORIGINATOR     = 

OBJECT_NAME    = STARLINK-36825
OBJECT_ID      = 2026-041B
CENTER_NAME    = EARTH
REF_FRAME      = TEME
TIME_SYSTEM    = UTC
MEAN_ELEMENT_THEORY = SGP/SGP4

EPOCH          = 2026-03-17T13:29:34.267488
MEAN_MOTION    = 15.80957732
ECCENTRICITY   = .00017142
INCLINATION    = 53.1591
RA_OF_ASC_NODE = 22.6690
ARG_OF_PERICENTER = 110.2618
MEAN_ANOMALY   = 249.8589

EPHEMERIS_TYPE = 0
CLASSIFICATION_TYPE = U
NORAD_CAT_ID   = 68041
ELEMENT_SET_NO = 999
REV_AT_EPOCH   = 246
BSTAR          = .11055803E-2
MEAN_MOTION_DOT = .224139E-2
MEAN_MOTION_DDOT = 0

CCSDS_OMM_VERS = 2.0
CREATION_DATE  = 
ORIGINATOR     = 

OBJECT_NAME    = STARLINK-36925
OBJECT_ID      = 2026-041C
CENTER_NAME    = EARTH
REF_FRAME      = TEME
TIME_SYSTEM    = UTC
MEAN_ELEMENT_THEORY = SGP/SGP4

EPOCH          = 2026-03-17T14:00:01.999872
MEAN_MOTION    = 15.75229288
ECCENTRICITY   = .00009963
INCLINATION    = 53.1598
RA_OF_ASC_NODE = 22.7018
ARG_OF_PERICENTER = 70.1864
MEAN_ANOMALY   = 343.2296

EPHEMERIS_TYPE = 0
CLASSIFICATION_TYPE = U
NORAD_CAT_ID   = 68042
ELEMENT_SET_NO = 999
REV_AT_EPOCH   = 364
BSTAR          = -.1068727E-3
MEAN_MOTION_DOT = -.16981E-3
MEAN_MOTION_DDOT = 0

CCSDS_OMM_VERS = 2.0
CREATION_DATE  = 
ORIGINATOR     = 

OBJECT_NAME    = STARLINK-36902
OBJECT_ID      = 2026-041D
CENTER_NAME    = EARTH
REF_FRAME      = TEME
TIME_SYSTEM    = UTC
MEAN_ELEMENT_THEORY = SGP/SGP4

EPOCH          = 2026-03-17T13:28:29.644608
MEAN_MOTION    = 15.80948922
ECCENTRICITY   = .00018878
INCLINATION    = 53.1593
RA_OF_ASC_NODE = 22.6655
ARG_OF_PERICENTER = 54.6234
MEAN_ANOMALY   = 305.4965

EPHEMERIS_TYPE = 0
CLASSIFICATION_TYPE = U
NORAD_CAT_ID   = 68043
ELEMENT_SET_NO = 999
REV_AT_EPOCH   = 246
BSTAR          = .11203506E-2
MEAN_MOTION_DOT = .227131E-2
MEAN_MOTION_DDOT = 0

CCSDS_OMM_VERS = 2.0
CREATION_DATE  = 
ORIGINATOR     = 

OBJECT_NAME    = STARLINK-36966
OBJECT_ID      = 2026-041E
CENTER_NAME    = EARTH
REF_FRAME      = TEME
TIME_SYSTEM    = UTC
MEAN_ELEMENT_THEORY = SGP/SGP4

EPOCH          = 2026-03-17T14:00:01.999872
MEAN_MOTION    = 15.75246718
ECCENTRICITY   = .00012975
INCLINATION    = 53.1598
RA_OF_ASC_NODE = 22.6492
ARG_OF_PERICENTER = 107.0515
MEAN_ANOMALY   = 332.1132

EPHEMERIS_TYPE = 0
CLASSIFICATION_TYPE = U
NORAD_CAT_ID   = 68044
ELEMENT_SET_NO = 999
REV_AT_EPOCH   = 364
BSTAR          = -.11419437E-3
MEAN_MOTION_DOT = -.18113E-3
MEAN_MOTION_DDOT = 0

CCSDS_OMM_VERS = 2.0
CREATION_DATE  = 
ORIGINATOR     = 

OBJECT_NAME    = STARLINK-36864
OBJECT_ID      = 2026-041F
CENTER_NAME    = EARTH
REF_FRAME      = TEME
TIME_SYSTEM    = UTC
MEAN_ELEMENT_THEORY = SGP/SGP4

EPOCH          = 2026-03-17T14:00:01.999872
MEAN_MOTION    = 15.75254558
ECCENTRICITY   = .00010908
INCLINATION    = 53.1597
RA_OF_ASC_NODE = 22.6452
ARG_OF_PERICENTER = 104.4580
MEAN_ANOMALY   = 336.5780

EPHEMERIS_TYPE = 0
CLASSIFICATION_TYPE = U
NORAD_CAT_ID   = 68045
ELEMENT_SET_NO = 999
REV_AT_EPOCH   = 364
BSTAR          = -.28023713E-3
MEAN_MOTION_DOT = -.43405E-3
MEAN_MOTION_DDOT = 0

CCSDS_OMM_VERS = 2.0
CREATION_DATE  = 
ORIGINATOR     = 

OBJECT_NAME    = STARLINK-36321
OBJECT_ID      = 2026-041G
CENTER_NAME    = EARTH
REF_FRAME      = TEME
TIME_SYSTEM    = UTC
MEAN_ELEMENT_THEORY = SGP/SGP4

EPOCH          = 2026-03-17T13:24:10.253664
MEAN_MOTION    = 15.80942437
ECCENTRICITY   = .00012744
INCLINATION    = 53.1595
RA_OF_ASC_NODE = 22.6459
ARG_OF_PERICENTER = 97.4382
MEAN_ANOMALY   = 262.6786

EPHEMERIS_TYPE = 0
CLASSIFICATION_TYPE = U
NORAD_CAT_ID   = 68046
ELEMENT_SET_NO = 999
REV_AT_EPOCH   = 246
BSTAR          = .95711493E-3
MEAN_MOTION_DOT = .193105E-2
MEAN_MOTION_DDOT = 0

CCSDS_OMM_VERS = 2.0
CREATION_DATE  = 
ORIGINATOR     = 

OBJECT_NAME    = STARLINK-36181
OBJECT_ID      = 2026-041H
CENTER_NAME    = EARTH
REF_FRAME      = TEME
TIME_SYSTEM    = UTC
MEAN_ELEMENT_THEORY = SGP/SGP4

EPOCH          = 2026-03-17T13:25:15.210912
MEAN_MOTION    = 15.80946254
ECCENTRICITY   = .0001891
INCLINATION    = 53.1594
RA_OF_ASC_NODE = 22.6497
ARG_OF_PERICENTER = 99.8256
MEAN_ANOMALY   = 260.2980

EPHEMERIS_TYPE = 0
CLASSIFICATION_TYPE = U
NORAD_CAT_ID   = 68047
ELEMENT_SET_NO = 999
REV_AT_EPOCH   = 246
BSTAR          = .11441089E-2
MEAN_MOTION_DOT = .232068E-2
MEAN_MOTION_DDOT = 0

CCSDS_OMM_VERS = 2.0
CREATION_DATE  = 
ORIGINATOR     = 

OBJECT_NAME    = STARLINK-36318
OBJECT_ID      = 2026-041J
CENTER_NAME    = EARTH
REF_FRAME      = TEME
TIME_SYSTEM    = UTC
MEAN_ELEMENT_THEORY = SGP/SGP4

EPOCH          = 2026-03-17T14:00:01.999872
MEAN_MOTION    = 15.75239153
ECCENTRICITY   = .00011166
INCLINATION    = 53.1599
RA_OF_ASC_NODE = 22.5959
ARG_OF_PERICENTER = 105.6562
MEAN_ANOMALY   = 359.2695

EPHEMERIS_TYPE = 0
CLASSIFICATION_TYPE = U
NORAD_CAT_ID   = 68048
ELEMENT_SET_NO = 999
REV_AT_EPOCH   = 364
BSTAR          = -.15243481E-3
MEAN_MOTION_DOT = -.23939E-3
MEAN_MOTION_DDOT = 0

