STARLINK-36388          
1 68037U 26040Y   26076.58335648 -.01650669  00000+0 -81118-2 0  9994
2 68037  97.2763  25.4289 0001766  91.8153  75.6166 15.85005169  3641
STARLINK-36895          
1 68038U 26040Z   26076.58335648 -.01620339  00000+0 -79141-2 0  9999
2 68038  97.2732  25.4204 0001729  95.1506  58.8910 15.85076371  3691
STARLINK-36373          
1 68039U 26040AA  26076.58335648 -.01620631  00000+0 -78908-2 0  9995
2 68039  97.2729  25.4189 0001844  88.2832  61.1657 15.85139995  3645
STARLINK-36711          
1 68040U 26041A   26076.58335648 -.00093897  00000+0 -61415-3 0  9991
2 68040  53.1596  22.6987 0001275  58.2180 357.0555 15.75276182  3649
STARLINK-36825          
1 68041U 26041B   26076.56220217  .00224139  00000+0  11056-2 0  9993
2 68041  53.1591  22.6690 0001714 110.2618 249.8589 15.80957732  2466
STARLINK-36925          
1 68042U 26041C   26076.58335648 -.00016981  00000+0 -10687-3 0  9997
2 68042  53.1598  22.7018 0000996  70.1864 343.2296 15.75229288  3644
STARLINK-36902          
1 68043U 26041D   26076.56145422  .00227131  00000+0  11204-2 0  9999
2 68043  53.1593  22.6655 0001887  54.6234 305.4965 15.80948922  2465
STARLINK-36966          
1 68044U 26041E   26076.58335648 -.00018113  00000+0 -11419-3 0  9992
2 68044  53.1598  22.6492 0001297 107.0515 332.1132 15.75246718  3642
STARLINK-36864          
1 68045U 26041F   26076.58335648 -.00043405  00000+0 -28024-3 0  9995
2 68045  53.1597  22.6452 0001090 104.4580 336.5780 15.75254558  3640
STARLINK-36321          
1 68046U 26041G   26076.55845201  .00193105  00000+0  95711-3 0  9992
2 68046  53.1595  22.6459 0001274  97.4382 262.6786 15.80942437  2461
STARLINK-36181          
1 68047U 26041H   26076.55920383  .00232068  00000+0  11441-2 0  9997
2 68047  53.1594  22.6497 0001891  99.8256 260.2980 15.80946254  2465
STARLINK-36318          
1 68048U 26041J   26076.58335648 -.00023939  00000+0 -15243-3 0  9997
2 68048  53.1599  22.5959 0001116 105.6562 359.2695 15.75239153  3649
